CUBEBUG-2 (LO-74)
1 39440U 13066AA  26191.30584118  .00001961  00000-0  18439-3 0  9990
2 39440  97.8906 140.3858 0056121 311.9936  47.6511 14.93948233680449
FUNCUBE-1 (AO-73)
1 39444U 13066AE  26190.85804882  .00005139  00000-0  31713-3 0  9997
2 39444  97.8287 162.7825 0037818 124.9796 235.4993 15.09776510683084
UWE-3
1 39446U 13066AG  26191.34114674  .00002018  00000-0  17603-3 0  9992
2 39446  97.8693 147.5751 0047542 241.4844 118.1586 14.97180749681048
UNISAT-6
1 40012U 14033C   26191.39549180  .00001239  00000-0  13755-3 0  9995
2 40012  97.7899 343.7035 0044568 353.7824   6.2834 14.88355319649618
DUCHIFAT-1
1 40021U 14033M   26191.13669082  .00116517  00000-0  96018-3 0  9990
2 40021  98.0434 253.6137 0001847 252.3958 107.7101 15.70000067659348
LILACSAT-2
1 40908U 15049K   26191.61479169  .00013146  00000-0  21791-3 0  9990
2 40908  97.4633 229.3549 0008081 155.0949 205.0695 15.52246639599383
CAS-2T & KS-1Q
1 41847U 16066G   26191.16489299  .00000785  00000-0  11782-3 0  9992
2 41847  98.3813 266.6381 0342489  59.9893 303.4819 14.44763463508118
FOX-1B (AO-91)
1 43017U 17073E   26191.42349500  .00004588  00000-0  20168-3 0  9994
2 43017  97.4686  58.1651 0148014 248.1091 110.4347 15.13024016468906
FUNCUBE-3 (EO-79)/QB50P1
1 40025U 14033R   26191.28050615  .00005444  00000-0  26647-3 0  9993
2 40025  98.0969 204.0508 0010056 139.1601 221.0386 15.18618170656531
FOX-1A (AO-85)
1 40967U 15058D   26191.49255033  .00001725  00000-0  16251-3 0  9998
2 40967  64.7732 206.5515 0132011  47.5828 313.6362 14.91070925117048
DIWATA-2B (PO-101)
1 43678U 18084H   26191.64317668  .00001424  00000-0  11789-3 0  9999
2 43678  98.1222  28.8780 0013044  98.4228 261.8473 15.00552213419731
ESHAIL-2
1 43700U 18090A   26191.57203094  .00000000  00000-0  00000-0 0  9991
2 43700   0.0244  29.9004 0002158 129.2594   1.0690  1.00268914 27914
ITASAT-1
1 43786U 18099AE  26191.14073297  .00004555  00000-0  21845-3 0  9999
2 43786  97.4020 242.1964 0010730 270.9097  89.0908 15.19343715416391
FOX-1CLIFF (AO-95)
1 43770U 18099N   26191.14495820  .00007917  00000-0  29949-3 0  9990
2 43770  97.4377 251.3120 0006982 261.2710  98.7738 15.27204994416723
JY1SAT (JO-97)
1 43803U 18099AX  26191.12210713  .00013549  00000-0  40848-3 0  9990
2 43803  97.4121 254.0449 0006407 173.8802 186.2520 15.34409607417148
UWE-4
1 43880U 18111E   26190.27481266  .00027640  00000-0  53768-3 0  9990
2 43880  97.5841 119.7053 0005271 218.3666 141.7210 15.47549208414192
CAS-6 (TO-108)
1 44881U 19093C   26191.60385539  .00000248  00000-0  34016-4 0  9997
2 44881  97.7522 263.2643 0013978  16.1744 343.9915 14.86555114354899
DOSAAF-85 (RS-44)
1 44909U 19096E   26191.30306078  .00000009  00000-0 -16998-4 0  9994
2 44909  82.5238 324.3444 0218581  90.3753 272.2396 12.79748953305309
SALSAT (TUBSAT 22)
1 46495U 20068K   26191.42889773  .00005381  00000-0  18731-3 0  9991
2 46495  97.8857 195.9138 0008700 210.5134 149.5600 15.30129687318910
CAMSAT XW-3 (CAS-9)
1 50466U 21131B   26191.58753595  .00000447  00000-0  15162-3 0  9998
2 50466  98.4981 283.8515 0004848  42.6871 317.4694 14.41380025238483
ROBUSTA 1F (MTCUBE-2)
1 53109U 22080E   26191.21848870 -.00000003  00000-0  00000-0 0  9991
2 53109  70.1422 290.2367 0009008 284.7282  75.2379  6.42583278 93544
UMKA-1 (RS40S)
1 57172U 23091G   26191.58103759  .00004205  00000-0  19189-3 0  9996
2 57172  97.5043 250.1901 0013485  44.6913 315.5407 15.21089140167569
CUBESX-HSE-3 (RS42S)
1 57178U 23091N   26191.56452403  .00009140  00000-0  29966-3 0  9990
2 57178  97.5085 257.4544 0010144  18.5338 341.6271 15.31811440168000
MONITOR-3 (RS58S)
1 57180U 23091Q   26191.57599528  .00007335  00000-0  26821-3 0  9995
2 57180  97.5076 255.1990 0011506  25.6795 334.5014 15.28316190167869
MONITOR-4 (RS57S)
1 57182U 23091S   26191.61922126  .00006844  00000-0  24980-3 0  9994
2 57182  97.5070 255.2150 0011509  25.9099 334.2714 15.28402579167879
MONITOR-2 (RS39S)
1 57184U 23091U   26191.56617400  .00003375  00000-0  16375-3 0  9991
2 57184  97.5064 249.6990 0011835  39.2006 321.0083 15.19128763167504
SVYATOBOR-1 (RS60S)
1 57187U 23091X   26191.58746801  .00006149  00000-0  23453-3 0  9991
2 57187  97.5082 255.5380 0009228  20.7154 339.4457 15.27014810167883
VIZARD-METEO (RS38S)
1 57189U 23091Z   26191.59420570  .00012056  00000-0  33745-3 0  9995
2 57189  97.5085 261.5587 0006089 358.4364   1.6860 15.36780272168283
UTMN-2 (RS27S)
1 57203U 23091AP  26191.56948870  .00008702  00000-0  27848-3 0  9997
2 57203  97.5081 259.1218 0007220   7.3090 352.8256 15.32630499168128
POLYTECH UNIVERSE-3 (RS46S)
1 57191U 23091AB  26191.59020265  .00003372  00000-0  16237-3 0  9993
2 57191  97.5039 249.2271 0016470  52.7419 307.5314 15.19339788167507
