OBJECT_NAME,OBJECT_ID,EPOCH,MEAN_MOTION,ECCENTRICITY,INCLINATION,RA_OF_ASC_NODE,ARG_OF_PERICENTER,MEAN_ANOMALY,EPHEMERIS_TYPE,CLASSIFICATION_TYPE,NORAD_CAT_ID,ELEMENT_SET_NO,REV_AT_EPOCH,BSTAR,MEAN_MOTION_DOT,MEAN_MOTION_DDOT
CUBEBUG-2 (LO-74),2013-066AA,2026-07-10T07:20:24.677952,14.93948233,.00561215,97.8906,140.3858,311.9936,47.6511,0,U,39440,999,68044,.18439435E-3,.1961E-4,0
FUNCUBE-1 (AO-73),2013-066AE,2026-07-09T20:35:35.418048,15.09776510,.00378182,97.8287,162.7825,124.9796,235.4993,0,U,39444,999,68308,.31713173E-3,.5139E-4,0
UWE-3,2013-066AG,2026-07-10T08:11:15.078336,14.97180749,.00475418,97.8693,147.5751,241.4844,118.1586,0,U,39446,999,68104,.17602772E-3,.2018E-4,0
UNISAT-6,2014-033C,2026-07-10T09:29:30.491520,14.88355319,.00445681,97.7899,343.7035,353.7824,6.2834,0,U,40012,999,64961,.13755491E-3,.1239E-4,0
DUCHIFAT-1,2014-033M,2026-07-10T03:16:50.086848,15.70000067,.00018466,98.0434,253.6137,252.3958,107.7101,0,U,40021,999,65934,.96017557E-3,.116517E-2,0
QB50P1,2014-033R,2026-07-10T06:43:55.731360,15.18618170,.00100557,98.0969,204.0508,139.1601,221.0386,0,U,40025,999,65653,.26646951E-3,.5444E-4,0
LILACSAT-2,2015-049K,2026-07-10T14:45:18.002016,15.52246639,.00080813,97.4633,229.3549,155.0949,205.0695,0,U,40908,999,59938,.21791258E-3,.13146E-3,0
FOX-1A (AO-85),2015-058D,2026-07-10T11:49:16.348512,14.91070925,.01320106,64.7732,206.5515,47.5828,313.6362,0,U,40967,999,11704,.16251471E-3,.1725E-4,0
CAS-2T & KS-1Q,2016-066G,2026-07-10T03:57:26.754336,14.44763463,.0342489,98.3813,266.6381,59.9893,303.4819,0,U,41847,999,50811,.11781984E-3,.785E-5,0
RADFXSAT (FOX-1B),2017-073E,2026-07-10T10:09:49.968000,15.13024016,.01480142,97.4686,58.1651,248.1091,110.4347,0,U,43017,999,46890,.20168401E-3,.4588E-4,0
DIWATA-2B,2018-084H,2026-07-10T15:26:10.465152,15.00552213,.00130439,98.1222,28.8780,98.4228,261.8473,0,U,43678,999,41973,.11789046E-3,.1424E-4,0
ES'HAIL 2,2018-090A,2026-07-10T13:43:43.473216,1.00268914,.00021579,0.0244,29.9004,129.2594,1.0690,0,U,43700,999,2791,0,0,0
FOX-1CLIFF (AO-95),2018-099N,2026-07-10T03:28:44.388480,15.27204994,.00069822,97.4377,251.3120,261.2710,98.7738,0,U,43770,999,41672,.29948589E-3,.7917E-4,0
ITASAT,2018-099AE,2026-07-10T03:22:39.328608,15.19343715,.00107302,97.4020,242.1964,270.9097,89.0908,0,U,43786,999,41639,.21844873E-3,.4555E-4,0
JY1SAT (JO-97),2018-099AX,2026-07-10T02:55:50.056032,15.34409607,.00064067,97.4121,254.0449,173.8802,186.2520,0,U,43803,999,41714,.40848447E-3,.13549E-3,0
UWE-4,2018-111E,2026-07-09T06:35:43.813824,15.47549208,.00052707,97.5841,119.7053,218.3666,141.7210,0,U,43880,999,41419,.53767723E-3,.2764E-3,0
TIANYAN 01,2019-093C,2026-07-10T14:29:33.105696,14.86555114,.00139782,97.7522,263.2643,16.1744,343.9915,0,U,44881,999,35489,.34016478E-4,.248E-5,0
RS-44 & BREEZE-KM R/B,2019-096E,2026-07-10T07:16:24.451392,12.79748953,.02185813,82.5238,324.3444,90.3753,272.2396,0,U,44909,999,30530,-.16997626E-4,.9E-7,0
SALSAT,2020-068K,2026-07-10T10:17:36.763872,15.30129687,.00086995,97.8857,195.9138,210.5134,149.5600,0,U,46495,999,31891,.18731159E-3,.5381E-4,0
XW-3 (CAS-9),2021-131B,2026-07-10T14:06:03.106080,14.41380025,.00048484,98.4981,283.8515,42.6871,317.4694,0,U,50466,999,23848,.15161788E-3,.447E-5,0
GREENCUBE (IO-117),2022-080E,2026-07-10T05:14:37.423680,6.42583278,.00090084,70.1422,290.2367,284.7282,75.2379,0,U,53109,999,9354,0,-.3E-7,0
UMKA 1 (RS40S),2023-091G,2026-07-10T13:56:41.647776,15.21089140,.00134854,97.5043,250.1901,44.6913,315.5407,0,U,57172,999,16756,.19188807E-3,.4205E-4,0
CUBESX-HSE 3 (RS42S),2023-091N,2026-07-10T13:32:54.876192,15.31811440,.0010144,97.5085,257.4544,18.5338,341.6271,0,U,57178,999,16800,.29965963E-3,.914E-4,0
MONITOR-3 (RS58S),2023-091Q,2026-07-10T13:49:25.992192,15.28316190,.00115055,97.5076,255.1990,25.6795,334.5014,0,U,57180,999,16786,.26821357E-3,.7335E-4,0
MONITOR-4 (RS57S),2023-091S,2026-07-10T14:51:40.716864,15.28402579,.00115089,97.5070,255.2150,25.9099,334.2714,0,U,57182,999,16787,.24980346E-3,.6844E-4,0
MONITOR-2 (RS39S),2023-091U,2026-07-10T13:35:17.433600,15.19128763,.00118349,97.5064,249.6990,39.2006,321.0083,0,U,57184,999,16750,.16374717E-3,.3375E-4,0
SVYATOBOR 1 (RS60S),2023-091X,2026-07-10T14:05:57.236064,15.27014810,.00092279,97.5082,255.5380,20.7154,339.4457,0,U,57187,999,16788,.2345253E-3,.6149E-4,0
VIZARD-METEO (RS38S),2023-091Z,2026-07-10T14:15:39.372480,15.36780272,.00060894,97.5085,261.5587,358.4364,1.6860,0,U,57189,999,16828,.33744665E-3,.12056E-3,0
POLYTECH-UNIVERSE 3 (RS46S),2023-091AB,2026-07-10T14:09:53.508960,15.19339788,.00164704,97.5039,249.2271,52.7419,307.5314,0,U,57191,999,16750,.16236907E-3,.3372E-4,0
UTMN 2 (RS27S),2023-091AP,2026-07-10T13:40:03.823680,15.32630499,.00072205,97.5081,259.1218,7.3090,352.8256,0,U,57203,999,16812,.27848459E-3,.8702E-4,0
